[{"OBJECT_NAME":"BRO-15","OBJECT_ID":"2024-149CP","EPOCH":"2026-03-09T18:52:33.918816","MEAN_MOTION":14.95892184,"ECCENTRICITY":0.00093198,"INCLINATION":97.6864,"RA_OF_ASC_NODE":146.0377,"ARG_OF_PERICENTER":65.4416,"MEAN_ANOMALY":294.7775,"EPHEMERIS_TYPE":0,"CLASSIFICATION_TYPE":"U","NORAD_CAT_ID":60553,"ELEMENT_SET_NO":999,"REV_AT_EPOCH":8514,"BSTAR":7.8021491e-5,"MEAN_MOTION_DOT":8.16e-6,"MEAN_MOTION_DDOT":0},{"OBJECT_NAME":"STARLINK-36159","OBJECT_ID":"2025-298E","EPOCH":"2026-03-09T22:03:03.380832","MEAN_MOTION":14.99153219,"ECCENTRICITY":0.00023256,"INCLINATION":70.0019,"RA_OF_ASC_NODE":13.8101,"ARG_OF_PERICENTER":251.4113,"MEAN_ANOMALY":108.6794,"EPHEMERIS_TYPE":0,"CLASSIFICATION_TYPE":"U","NORAD_CAT_ID":67079,"ELEMENT_SET_NO":999,"REV_AT_EPOCH":1325,"BSTAR":0.0001811037,"MEAN_MOTION_DOT":2.114e-5,"MEAN_MOTION_DDOT":0}]
